ORBCOMM FM37            
1 33064U 08031E   25172.46208119  .00001009  00000+0  16065-3 0  9996
2 33064  48.4414 323.3114 0004826  28.5986  11.9937 14.79784656914683
ORBCOMM FM40            
1 33065U 08031F   25172.50249936  .00001338  00000+0  19371-3 0  9992
2 33065  48.4429 307.0831 0005788  43.4423 356.9250 14.82045245914807
ORBCOMM FM107           
1 40087U 14040B   25172.53023944  .00000411  00000+0  12457-3 0  9992
2 40087  47.0063 356.7452 0001558 285.0927  74.9787 14.58252313581779
ORBCOMM FM106           
1 40088U 14040C   25172.51531547  .00000456  00000+0  10789-3 0  9999
2 40088  47.0585 178.5717 0015884  85.7497 274.5209 14.69451786584112
ORBCOMM FM111           
1 40089U 14040D   25172.31889672  .00001577  00000+0  20029-3 0  9996
2 40089  47.0036  29.1281 0030749 212.8277 147.0710 14.86320136590848
ORBCOMM FM104           
1 40090U 14040E   25172.59189215  .00000266  00000+0  96839-4 0  9991
2 40090  47.0064  30.1140 0016705 226.0930 133.8576 14.56651888581263
